{"type": "FeatureCollection", "features": [{"type": "Feature", "properties": {"norad_id": 2807, "name": "OPS 7218 (TRANSIT 16)", "group": "nnss", "lat": -73.97996555629882, "lon": -7.203063678110282, "alt_km": 1093.4135804367716, "timestamp": "2025-12-15T04:01:20.719917+00:00", "meta": {"OBJECT_NAME": "OPS 7218 (TRANSIT 16)", "OBJECT_ID": "1967-048A", "EPOCH": "2025-12-14T02:02:05.924256", "MEAN_MOTION": 13.50722412, "ECCENTRICITY": 0.00220105, "INCLINATION": 89.6732, "RA_OF_ASC_NODE": 353.9716, "ARG_OF_PERICENTER": 110.4937, "MEAN_ANOMALY": 313.4116, "EPHEMERIS_TYPE": 0, "CLASSIFICATION_TYPE": "U", "NORAD_CAT_ID": 2807, "ELEMENT_SET_NO": 999, "REV_AT_EPOCH": 88294, "BSTAR": 0.00017682233, "MEAN_MOTION_DOT": 1.24e-06, "MEAN_MOTION_DDOT": 0}, "tle": {"line1": "1 02807U 67048A   25348.08479079  .00000124  00000+0  17682-3 0  9991", "line2": "2 02807  89.6732 353.9716 0022010 110.4937 313.4116 13.50722412882945"}}, "geometry": {"type": "Point", "coordinates": [-7.203063678110282, -73.97996555629882]}}, {"type": "Feature", "properties": {"norad_id": 2965, "name": "OPS 4947 (TRANSIT 17)", "group": "nnss", "lat": 14.55556184382699, "lon": 24.44565489918434, "alt_km": 1089.4153277759424, "timestamp": "2025-12-15T04:01:20.719940+00:00", "meta": {"OBJECT_NAME": "OPS 4947 (TRANSIT 17)", "OBJECT_ID": "1967-092A", "EPOCH": "2025-12-14T08:29:16.406304", "MEAN_MOTION": 13.53453838, "ECCENTRICITY": 0.00462826, "INCLINATION": 89.2495, "RA_OF_ASC_NODE": 24.3126, "ARG_OF_PERICENTER": 229.6655, "MEAN_ANOMALY": 141.2145, "EPHEMERIS_TYPE": 0, "CLASSIFICATION_TYPE": "U", "NORAD_CAT_ID": 2965, "ELEMENT_SET_NO": 999, "REV_AT_EPOCH": 87119, "BSTAR": 0.0002223473, "MEAN_MOTION_DOT": 1.61e-06, "MEAN_MOTION_DDOT": 0}, "tle": {"line1": "1 02965U 67092A   25348.35366211  .00000161  00000+0  22235-3 0  9999", "line2": "2 02965  89.2495  24.3126 0046282 229.6655 141.2145 13.53453838871193"}}, "geometry": {"type": "Point", "coordinates": [24.44565489918434, 14.55556184382699]}}, {"type": "Feature", "properties": {"norad_id": 3133, "name": "OPS 7034 (TRANSIT 18)", "group": "nnss", "lat": 33.04766374207964, "lon": 93.66385195906545, "alt_km": 1011.3017793102081, "timestamp": "2025-12-15T04:01:20.719954+00:00", "meta": {"OBJECT_NAME": "OPS 7034 (TRANSIT 18)", "OBJECT_ID": "1968-012A", "EPOCH": "2025-12-14T08:18:39.335040", "MEAN_MOTION": 13.51566071, "ECCENTRICITY": 0.00740091, "INCLINATION": 90.028, "RA_OF_ASC_NODE": 273.6433, "ARG_OF_PERICENTER": 164.4805, "MEAN_ANOMALY": 308.774, "EPHEMERIS_TYPE": 0, "CLASSIFICATION_TYPE": "U", "NORAD_CAT_ID": 3133, "ELEMENT_SET_NO": 999, "REV_AT_EPOCH": 56940, "BSTAR": 0.00018393081, "MEAN_MOTION_DOT": 1.32e-06, "MEAN_MOTION_DDOT": 0}, "tle": {"line1": "1 03133U 68012A   25348.34628860  .00000132  00000+0  18393-3 0  9998", "line2": "2 03133  90.0280 273.6433 0074009 164.4805 308.7740 13.51566071569405"}}, "geometry": {"type": "Point", "coordinates": [93.66385195906545, 33.04766374207964]}}, {"type": "Feature", "properties": {"norad_id": 4507, "name": "NNSS 19 (TRANSIT 19)", "group": "nnss", "lat": 63.930610467388135, "lon": 54.54658298167255, "alt_km": 1186.3364284571517, "timestamp": "2025-12-15T04:01:20.719966+00:00", "meta": {"OBJECT_NAME": "NNSS 19 (TRANSIT 19)", "OBJECT_ID": "1970-067A", "EPOCH": "2025-12-14T04:20:13.742304", "MEAN_MOTION": 13.51315468, "ECCENTRICITY": 0.01704674, "INCLINATION": 90.0054, "RA_OF_ASC_NODE": 234.535, "ARG_OF_PERICENTER": 289.1669, "MEAN_ANOMALY": 69.1099, "EPHEMERIS_TYPE": 0, "CLASSIFICATION_TYPE": "U", "NORAD_CAT_ID": 4507, "ELEMENT_SET_NO": 999, "REV_AT_EPOCH": 72241, "BSTAR": 0.00018434892, "MEAN_MOTION_DOT": 1.38e-06, "MEAN_MOTION_DDOT": 0}, "tle": {"line1": "1 04507U 70067A   25348.18071461  .00000138  00000+0  18435-3 0  9991", "line2": "2 04507  90.0054 234.5350 0170467 289.1669  69.1099 13.51315468722411"}}, "geometry": {"type": "Point", "coordinates": [54.54658298167255, 63.930610467388135]}}, {"type": "Feature", "properties": {"norad_id": 6909, "name": "NNSS 20 (TRANSIT 20)", "group": "nnss", "lat": 2.844075206733293, "lon": -104.97502773667917, "alt_km": 952.477370750602, "timestamp": "2025-12-15T04:01:20.719977+00:00", "meta": {"OBJECT_NAME": "NNSS 20 (TRANSIT 20)", "OBJECT_ID": "1973-081A", "EPOCH": "2025-12-14T06:59:46.343040", "MEAN_MOTION": 13.7143501, "ECCENTRICITY": 0.01566135, "INCLINATION": 89.8563, "RA_OF_ASC_NODE": 255.031, "ARG_OF_PERICENTER": 73.7259, "MEAN_ANOMALY": 288.1067, "EPHEMERIS_TYPE": 0, "CLASSIFICATION_TYPE": "U", "NORAD_CAT_ID": 6909, "ELEMENT_SET_NO": 999, "REV_AT_EPOCH": 80382, "BSTAR": 0.00028952316, "MEAN_MOTION_DOT": 2.96e-06, "MEAN_MOTION_DDOT": 0}, "tle": {"line1": "1 06909U 73081A   25348.29150860  .00000296  00000+0  28952-3 0  9991", "line2": "2 06909  89.8563 255.0310 0156613  73.7259 288.1067 13.71435010803824"}}, "geometry": {"type": "Point", "coordinates": [-104.97502773667917, 2.844075206733293]}}, {"type": "Feature", "properties": {"norad_id": 10457, "name": "TRANSAT", "group": "nnss", "lat": 79.61643764934266, "lon": -103.41091307948649, "alt_km": 1066.220289613544, "timestamp": "2025-12-15T04:01:20.719988+00:00", "meta": {"OBJECT_NAME": "TRANSAT", "OBJECT_ID": "1977-106A", "EPOCH": "2025-12-14T08:16:34.588992", "MEAN_MOTION": 13.48943908, "ECCENTRICITY": 0.00255494, "INCLINATION": 89.6481, "RA_OF_ASC_NODE": 78.5402, "ARG_OF_PERICENTER": 184.8329, "MEAN_ANOMALY": 242.7224, "EPHEMERIS_TYPE": 0, "CLASSIFICATION_TYPE": "U", "NORAD_CAT_ID": 10457, "ELEMENT_SET_NO": 999, "REV_AT_EPOCH": 36765, "BSTAR": 0.00013181253, "MEAN_MOTION_DOT": 9.3e-07, "MEAN_MOTION_DDOT": 0}, "tle": {"line1": "1 10457U 77106A   25348.34484478  .00000093  00000+0  13181-3 0  9990", "line2": "2 10457  89.6481  78.5402 0025549 184.8329 242.7224 13.48943908367650"}}, "geometry": {"type": "Point", "coordinates": [-103.41091307948649, 79.61643764934266]}}, {"type": "Feature", "properties": {"norad_id": 12458, "name": "NOVA 1", "group": "nnss", "lat": 41.63693119090735, "lon": -88.78045658254386, "alt_km": 1159.7404665547992, "timestamp": "2025-12-15T04:01:20.719999+00:00", "meta": {"OBJECT_NAME": "NOVA 1", "OBJECT_ID": "1981-044A", "EPOCH": "2025-12-14T07:38:13.369056", "MEAN_MOTION": 13.23278689, "ECCENTRICITY": 0.00159066, "INCLINATION": 89.8525, "RA_OF_ASC_NODE": 91.3628, "ARG_OF_PERICENTER": 100.1142, "MEAN_ANOMALY": 314.0642, "EPHEMERIS_TYPE": 0, "CLASSIFICATION_TYPE": "U", "NORAD_CAT_ID": 12458, "ELEMENT_SET_NO": 999, "REV_AT_EPOCH": 15207, "BSTAR": 0.00015294781, "MEAN_MOTION_DOT": 7.4e-07, "MEAN_MOTION_DDOT": 0}, "tle": {"line1": "1 12458U 81044A   25348.31821029  .00000074  00000+0  15295-3 0  9990", "line2": "2 12458  89.8525  91.3628 0015906 100.1142 314.0642 13.23278689152072"}}, "geometry": {"type": "Point", "coordinates": [-88.78045658254386, 41.63693119090735]}}, {"type": "Feature", "properties": {"norad_id": 15362, "name": "NOVA 3", "group": "nnss", "lat": 8.937275195694957, "lon": 80.54409163807438, "alt_km": 1158.2451185890814, "timestamp": "2025-12-15T04:01:20.720011+00:00", "meta": {"OBJECT_NAME": "NOVA 3", "OBJECT_ID": "1984-110A", "EPOCH": "2025-12-14T08:21:34.803936", "MEAN_MOTION": 13.23044732, "ECCENTRICITY": 0.00303882, "INCLINATION": 90.1223, "RA_OF_ASC_NODE": 80.5537, "ARG_OF_PERICENTER": 327.326, "MEAN_ANOMALY": 101.5341, "EPHEMERIS_TYPE": 0, "CLASSIFICATION_TYPE": "U", "NORAD_CAT_ID": 15362, "ELEMENT_SET_NO": 999, "REV_AT_EPOCH": 98720, "BSTAR": 9.0449523e-05, "MEAN_MOTION_DOT": 4.6e-07, "MEAN_MOTION_DDOT": 0}, "tle": {"line1": "1 15362U 84110A   25348.34831949  .00000046  00000+0  90450-4 0  9995", "line2": "2 15362  90.1223  80.5537 0030388 327.3260 101.5341 13.23044732987209"}}, "geometry": {"type": "Point", "coordinates": [80.54409163807438, 8.937275195694957]}}, {"type": "Feature", "properties": {"norad_id": 15935, "name": "OSCAR 30", "group": "nnss", "lat": -24.99333066139291, "lon": -80.19045368246026, "alt_km": 1206.0029023578918, "timestamp": "2025-12-15T04:01:20.720022+00:00", "meta": {"OBJECT_NAME": "OSCAR 30", "OBJECT_ID": "1985-066A", "EPOCH": "2025-12-14T07:30:23.949216", "MEAN_MOTION": 13.36078547, "ECCENTRICITY": 0.01693786, "INCLINATION": 90.1652, "RA_OF_ASC_NODE": 99.8727, "ARG_OF_PERICENTER": 79.5155, "MEAN_ANOMALY": 334.6355, "EPHEMERIS_TYPE": 0, "CLASSIFICATION_TYPE": "U", "NORAD_CAT_ID": 15935, "ELEMENT_SET_NO": 999, "REV_AT_EPOCH": 96474, "BSTAR": 0.0001432461, "MEAN_MOTION_DOT": 9e-07, "MEAN_MOTION_DDOT": 0}, "tle": {"line1": "1 15935U 85066A   25348.31277719  .00000090  00000+0  14325-3 0  9993", "line2": "2 15935  90.1652  99.8727 0169378  79.5155 334.6355 13.36078547964749"}}, "geometry": {"type": "Point", "coordinates": [-80.19045368246026, -24.99333066139291]}}, {"type": "Feature", "properties": {"norad_id": 15936, "name": "OSCAR 24", "group": "nnss", "lat": -83.03516980830841, "lon": 93.81545746557832, "alt_km": 1256.228531944852, "timestamp": "2025-12-15T04:01:20.720033+00:00", "meta": {"OBJECT_NAME": "OSCAR 24", "OBJECT_ID": "1985-066B", "EPOCH": "2025-12-14T07:08:17.811168", "MEAN_MOTION": 13.35936049, "ECCENTRICITY": 0.01704655, "INCLINATION": 90.1791, "RA_OF_ASC_NODE": 92.333, "ARG_OF_PERICENTER": 85.9929, "MEAN_ANOMALY": 328.9185, "EPHEMERIS_TYPE": 0, "CLASSIFICATION_TYPE": "U", "NORAD_CAT_ID": 15936, "ELEMENT_SET_NO": 999, "REV_AT_EPOCH": 96664, "BSTAR": 0.00013635504, "MEAN_MOTION_DOT": 8.6e-07, "MEAN_MOTION_DDOT": 0}, "tle": {"line1": "1 15936U 85066B   25348.29742837  .00000086  00000+0  13636-3 0  9998", "line2": "2 15936  90.1791  92.3330 0170465  85.9929 328.9185 13.35936049966648"}}, "geometry": {"type": "Point", "coordinates": [93.81545746557832, -83.03516980830841]}}]}